BANDWAGON-2 OBJECT D    
1 62380U 24247D   26157.25510279  .00012616  00000+0  42575-3 0  9991
2 62380  44.9971 349.4794 0004765 213.6444 146.4138 15.30747929 81329
HAWK-11C                
1 62381U 24247E   26157.65954362  .00009095  00000+0  31528-3 0  9994
2 62381  45.0053 346.7824 0004603 174.4534 185.6402 15.30192312 81398
HAWK-11A                
1 62382U 24247F   26157.98604601  .00008784  00000+0  30481-3 0  9990
2 62382  44.9945 344.3608 0003968 177.8476 182.2426 15.30196000 81449
LIZZIESAT-2 (LS-2)      
1 62383U 24247G   26157.80174036  .00010087  00000+0  35375-3 0  9992
2 62383  44.9928 348.4085 0002767 193.4263 166.6547 15.29704239 81389
ICEYE-X49               
1 62384U 24247H   26158.00052181  .00004925  00000+0  28924-3 0  9998
2 62384  44.9989  51.7699 0001057 275.4617  84.6139 15.12903796 80631
BANDWAGON-2 OBJECT J    
1 62385U 24247J   26157.70119593  .00055430  00000+0  94419-3 0  9995
2 62385  45.0000 311.1846 0008695 246.6506 113.3471 15.50603202 81829
TOMORROW-S4             
1 62386U 24247K   26157.81384249  .00008363  00000+0  30153-3 0  9998
2 62386  44.9811 349.8558 0003868 319.1101  40.9492 15.28996601 81360
BANDWAGON-2 OBJECT L    
1 62387U 24247L   26157.69439682  .00060473  00000+0  96647-3 0  9997
2 62387  44.9913 308.2378 0009342 258.3378 101.6466 15.52344845 81850
GITAI-SC1               
1 62388U 24247M   26157.87234328  .00006274  00000+0  28762-3 0  9990
2 62388  45.0040   7.4123 0001450 249.8519 110.2206 15.21280165 81166
ICEYE-X47               
1 62389U 24247N   26156.98834024  .00006239  00000+0  36005-3 0  9991
2 62389  44.9970  56.8033 0001306 216.7000 143.3788 15.13152727 80482
LASARSAT                
1 62391U 24247Q   26154.92379714  .00036882  00000+0  75515-3 0  9992
2 62391  44.9754 336.7002 0008047 258.6055 101.3931 15.45494859 81266
TOMORROW-S3             
1 62392U 24247R   26157.65113877  .00007848  00000+0  28407-3 0  9990
2 62392  45.0035 350.7455 0003485 257.6191 102.4303 15.28948050 81342
BANDWAGON-2 OBJECT S    
1 62393U 24247S   26158.05018151  .00750919  24690-3  18712-2 0  9991
2 62393  44.9578 278.6334 0019690 332.9403  27.0477 15.94683129 82223
CROCUBE                 
1 62394U 24247T   26157.84237017  .00044564  00000+0  84876-3 0  9994
2 62394  44.9730 317.8161 0008144 277.6429  82.3536 15.47515230 81744
BANDWAGON-2 OBJECT U    
1 62395U 24247U   26152.92070404  .00041880  00000+0  81217-3 0  9998
2 62395  44.9957 342.1306 0007179 207.0493 153.0024 15.47027631 81036
BANDWAGON-2 OBJECT V    
1 62396U 24247V   26158.13542833  .00052335  00000+0  85214-3 0  9996
2 62396  44.9942 306.5867 0009207 257.4760 102.5103 15.51885063 81917
BANDWAGON-2 OBJECT Y    
1 62399U 24247Y   26157.71455016  .00045224  00000+0  84550-3 0  9999
2 62399  44.9973 314.6133 0007544 237.4983 122.5179 15.48048186 81780
XCUBE-1                 
1 62400U 24247Z   26157.94068561  .00009932  00000+0  35125-3 0  9992
2 62400  44.9971 348.5474 0003633 175.4096 184.6821 15.29444673 81396
CTC-0                   
1 62401U 24247AA  26157.75807621  .00024588  00000+0  62645-3 0  9991
2 62401  44.9732 328.1183 0007672 230.1455 129.8758 15.39148424 81619
DJIBOUTI-1B             
1 62402U 24247AB  26157.13973366  .00078486  00000+0  11436-2 0  9991
2 62402  44.9721 306.7666 0008777 266.8371  93.1518 15.54789927 81811
BANDWAGON-2 OBJECT AC   
1 62403U 24247AC  26158.19594355  .00021903  00000+0  56989-3 0  9991
2 62403  45.0050 331.5059 0005629 236.6451 123.3898 15.38580076 81620
BANDWAGON-2 OBJECT AD   
1 62404U 24247AD  26157.12537411  .00060965  00000+0  10235-2 0  9998
2 62404  44.9926 313.4749 0008638 246.9716 113.0266 15.50974449 81740
BANDWAGON-2 OBJECT AE   
1 62405U 24247AE  26157.66891109  .00096719  00000+0  11381-2 0  9994
2 62405  44.9755 297.4095 0010822 280.3761  79.5915 15.60376560 81384
STRIX-2                 
1 62406U 24248A   26158.32448663  .00006454  00000+0  41338-3 0  9996
2 62406  97.6287 114.0237 0016325  16.4642 343.7114 15.08789155 80108
STARLINK-11444 [DTC]    
1 62409U 24249A   26158.00004630  .00087879  00000+0  68252-3 0  9991
2 62409  43.0002 349.6389 0001799 264.0387  85.4575 15.70791134  5940
STARLINK-11493 [DTC]    
1 62410U 24249B   26157.94363366  .00091231  00000+0  70591-3 0  9995
2 62410  42.9991 350.0491 0002239 253.6836 106.3786 15.70865414 83519
STARLINK-11453 [DTC]    
1 62411U 24249C   26158.22970848  .00290875  00000+0  21823-2 0  9995
2 62411  42.9993 347.8794 0001243 275.0978  84.9748 15.70945314 83563
STARLINK-11441 [DTC]    
1 62413U 24249E   26157.83226753  .00264916  00000+0  19915-2 0  9998
2 62413  43.0014 350.0479 0001051 215.6060 144.4738 15.70976924 83502
STARLINK-11445 [DTC]    
1 62414U 24249F   26158.22438827  .00190960  00000+0  14490-2 0  9990
2 62414  43.0024 347.8370 0004053 265.3213  94.7192 15.70977549 83566
STARLINK-11355 [DTC]    
1 62415U 24249G   26157.83757415  .00173510  00000+0  13218-2 0  9993
2 62415  42.9952 350.0779 0001193 125.8307 234.2672 15.70945548 83502
