OBJECT_NAME,OBJECT_ID,EPOCH,MEAN_MOTION,ECCENTRICITY,INCLINATION,RA_OF_ASC_NODE,ARG_OF_PERICENTER,MEAN_ANOMALY,EPHEMERIS_TYPE,CLASSIFICATION_TYPE,NORAD_CAT_ID,ELEMENT_SET_NO,REV_AT_EPOCH,BSTAR,MEAN_MOTION_DOT,MEAN_MOTION_DDOT
BANDWAGON-2 OBJECT D,2024-247D,2026-06-06T06:07:20.881056,15.30747929,.00047658,44.9971,349.4794,213.6444,146.4138,0,U,62380,999,8132,.42575446E-3,.12616E-3,0
HAWK-11C,2024-247E,2026-06-06T15:49:44.568768,15.30192312,.00046033,45.0053,346.7824,174.4534,185.6402,0,U,62381,999,8139,.31527743E-3,.9095E-4,0
HAWK-11A,2024-247F,2026-06-06T23:39:54.375264,15.30196000,.0003968,44.9945,344.3608,177.8476,182.2426,0,U,62382,999,8144,.30481309E-3,.8784E-4,0
LIZZIESAT-2 (LS-2),2024-247G,2026-06-06T19:14:30.367104,15.29704239,.00027673,44.9928,348.4085,193.4263,166.6547,0,U,62383,999,8138,.35375099E-3,.10087E-3,0
ICEYE-X49,2024-247H,2026-06-07T00:00:45.084384,15.12903796,.00010578,44.9989,51.7699,275.4617,84.6139,0,U,62384,999,8063,.28923586E-3,.4925E-4,0
BANDWAGON-2 OBJECT J,2024-247J,2026-06-06T16:49:43.328352,15.50603202,.00086952,45.0000,311.1846,246.6506,113.3471,0,U,62385,999,8182,.94418658E-3,.5543E-3,0
TOMORROW-S4,2024-247K,2026-06-06T19:31:55.991136,15.28996601,.00038682,44.9811,349.8558,319.1101,40.9492,0,U,62386,999,8136,.30152667E-3,.8363E-4,0
BANDWAGON-2 OBJECT L,2024-247L,2026-06-06T16:39:55.885248,15.52344845,.00093421,44.9913,308.2378,258.3378,101.6466,0,U,62387,999,8185,.96647036E-3,.60473E-3,0
GITAI-SC1,2024-247M,2026-06-06T20:56:10.459392,15.21280165,.00014503,45.0040,7.4123,249.8519,110.2206,0,U,62388,999,8116,.28762269E-3,.6274E-4,0
ICEYE-X47,2024-247N,2026-06-05T23:43:12.596736,15.13152727,.0001306,44.9970,56.8033,216.7000,143.3788,0,U,62389,999,8048,.36005E-3,.6239E-4,0
LASARSAT,2024-247Q,2026-06-03T22:10:16.072896,15.45494859,.00080478,44.9754,336.7002,258.6055,101.3931,0,U,62391,999,8126,.75515127E-3,.36882E-3,0
TOMORROW-S3,2024-247R,2026-06-06T15:37:38.389728,15.28948050,.00034855,45.0035,350.7455,257.6191,102.4303,0,U,62392,999,8134,.28407167E-3,.7848E-4,0
BANDWAGON-2 OBJECT S,2024-247S,2026-06-07T01:12:15.682464,15.94683129,.00196909,44.9578,278.6334,332.9403,27.0477,0,U,62393,999,8222,.18711676E-2,.750919E-2,.24689808E-3
CROCUBE,2024-247T,2026-06-06T20:13:00.782688,15.47515230,.00081442,44.9730,317.8161,277.6429,82.3536,0,U,62394,999,8174,.84876346E-3,.44564E-3,0
BANDWAGON-2 OBJECT U,2024-247U,2026-06-01T22:05:48.829056,15.47027631,.0007179,44.9957,342.1306,207.0493,153.0024,0,U,62395,999,8103,.81217216E-3,.4188E-3,0
BANDWAGON-2 OBJECT V,2024-247V,2026-06-07T03:15:01.007712,15.51885063,.00092075,44.9942,306.5867,257.4760,102.5103,0,U,62396,999,8191,.85213689E-3,.52335E-3,0
BANDWAGON-2 OBJECT Y,2024-247Y,2026-06-06T17:08:57.133824,15.48048186,.00075442,44.9973,314.6133,237.4983,122.5179,0,U,62399,999,8178,.84550412E-3,.45224E-3,0
XCUBE-1,2024-247Z,2026-06-06T22:34:35.236704,15.29444673,.00036331,44.9971,348.5474,175.4096,184.6821,0,U,62400,999,8139,.35125205E-3,.9932E-4,0
CTC-0,2024-247AA,2026-06-06T18:11:37.784544,15.39148424,.00076724,44.9732,328.1183,230.1455,129.8758,0,U,62401,999,8161,.62644788E-3,.24588E-3,0
DJIBOUTI-1B,2024-247AB,2026-06-06T03:21:12.988224,15.54789927,.0008777,44.9721,306.7666,266.8371,93.1518,0,U,62402,999,8181,.11436E-2,.78486E-3,0
BANDWAGON-2 OBJECT AC,2024-247AC,2026-06-07T04:42:09.522720,15.38580076,.00056293,45.0050,331.5059,236.6451,123.3898,0,U,62403,999,8162,.56988909E-3,.21903E-3,0
BANDWAGON-2 OBJECT AD,2024-247AD,2026-06-06T03:00:32.323104,15.50974449,.0008638,44.9926,313.4749,246.9716,113.0266,0,U,62404,999,8174,.10235E-2,.60965E-3,0
BANDWAGON-2 OBJECT AE,2024-247AE,2026-06-06T16:03:13.918176,15.60376560,.00108225,44.9755,297.4095,280.3761,79.5915,0,U,62405,999,8138,.11381245E-2,.96719E-3,0
STRIX-2,2024-248A,2026-06-07T07:47:15.644832,15.08789155,.00163256,97.6287,114.0237,16.4642,343.7114,0,U,62406,999,8010,.41337585E-3,.6454E-4,0
STARLINK-11444 [DTC],2024-249A,2026-06-07T00:00:04.000320,15.70791134,.00017994,43.0002,349.6389,264.0387,85.4575,0,U,62409,999,594,.68252058E-3,.87879E-3,0
STARLINK-11493 [DTC],2024-249B,2026-06-06T22:38:49.948224,15.70865414,.00022393,42.9991,350.0491,253.6836,106.3786,0,U,62410,999,8351,.70590998E-3,.91231E-3,0
STARLINK-11453 [DTC],2024-249C,2026-06-07T05:30:46.812672,15.70945314,.00012434,42.9993,347.8794,275.0978,84.9748,0,U,62411,999,8356,.21822695E-2,.290875E-2,0
STARLINK-11441 [DTC],2024-249E,2026-06-06T19:58:27.914592,15.70976924,.00010515,43.0014,350.0479,215.6060,144.4738,0,U,62413,999,8350,.19914557E-2,.264916E-2,0
STARLINK-11445 [DTC],2024-249F,2026-06-07T05:23:07.146528,15.70977549,.00040537,43.0024,347.8370,265.3213,94.7192,0,U,62414,999,8356,.14490103E-2,.19096E-2,0
STARLINK-11355 [DTC],2024-249G,2026-06-06T20:06:06.406560,15.70945548,.0001193,42.9952,350.0779,125.8307,234.2672,0,U,62415,999,8350,.13217974E-2,.17351E-2,0
